[{"OBJECT_NAME":"STARLINK-1556","OBJECT_ID":"2020-055G","EPOCH":"2026-03-10T00:00:02.999808","MEAN_MOTION":15.19594502,"ECCENTRICITY":0.00019373,"INCLINATION":53.1095,"RA_OF_ASC_NODE":124.8078,"ARG_OF_PERICENTER":90.9986,"MEAN_ANOMALY":131.2843,"EPHEMERIS_TYPE":0,"CLASSIFICATION_TYPE":"U","NORAD_CAT_ID":46033,"ELEMENT_SET_NO":999,"REV_AT_EPOCH":574,"BSTAR":0.005702776,"MEAN_MOTION_DOT":0.0012472,"MEAN_MOTION_DDOT":0},{"OBJECT_NAME":"CONNECTA IOT-14","OBJECT_ID":"2026-004AQ","EPOCH":"2026-03-09T22:44:46.185792","MEAN_MOTION":15.17901608,"ECCENTRICITY":0.00089335,"INCLINATION":97.4512,"RA_OF_ASC_NODE":69.4576,"ARG_OF_PERICENTER":336.151,"MEAN_ANOMALY":23.9308,"EPHEMERIS_TYPE":0,"CLASSIFICATION_TYPE":"U","NORAD_CAT_ID":67401,"ELEMENT_SET_NO":999,"REV_AT_EPOCH":870,"BSTAR":0.00024848153,"MEAN_MOTION_DOT":4.975e-5,"MEAN_MOTION_DDOT":0}]
